STARLINK-34632          
1 64792U 25150C   26072.55096197  .00004257  00000+0  36429-3 0  9994
2 64792  70.0026 124.6676 0003810 268.6655  91.4068 14.98335525 37099
STARLINK-34693          
1 64793U 25150D   26072.57183910  .00003325  00000+0  28622-3 0  9998
2 64793  70.0017 124.8533 0003970 270.1879  89.8826 14.98338578 37091
STARLINK-34666          
1 64794U 25150E   26072.57167292 -.00000792  00000+0 -58600-4 0  9991
2 64794  70.0014 124.8618 0003886 275.3013  84.7702 14.98327422 37099
STARLINK-34567          
1 64795U 25150F   26072.31296040  .00014200  00000+0  11947-2 0  9996
2 64795  70.0023 125.1580 0003398 264.6762  95.4010 14.98353468 37069
STARLINK-34646          
1 64796U 25150G   26072.55512577  .00012410  00000+0  10452-2 0  9990
2 64796  70.0021 124.7949 0003146 270.9482  89.1316 14.98361330 37989
STARLINK-34641          
1 64797U 25150H   26072.53410940  .00004223  00000+0  36143-3 0  9999
2 64797  70.0026 124.7251 0003031 265.3568  94.7245 14.98340693 37923
STARLINK-34649          
1 64798U 25150J   26072.28793944  .00003262  00000+0  28098-3 0  9992
2 64798  70.0021 125.4744 0003474 268.3849  91.6913 14.98336226 37947
STARLINK-34662          
1 64799U 25150K   26072.31312179  .00003658  00000+0  31414-3 0  9999
2 64799  70.0023 125.1611 0003368 272.7825  87.2949 14.98338051 37066
STARLINK-34660          
1 64800U 25150L   26072.32963081  .00017002  00000+0  14273-2 0  9998
2 64800  70.0037 125.2167 0003384 263.7956  96.2818 14.98382141 37068
STARLINK-34604          
1 64801U 25150M   26072.54245767  .00003616  00000+0  31059-3 0  9995
2 64801  70.0016 124.7550 0003637 271.7197  88.3545 14.98337745 37095
STARLINK-34658          
1 64802U 25150N   26072.30046150  .00001369  00000+0  12243-3 0  9992
2 64802  70.0026 125.5123 0003116 271.5126  88.5676 14.98343529 37054
STARLINK-34620          
1 64803U 25150P   26072.56766590  .00005846  00000+0  49709-3 0  9999
2 64803  70.0019 124.8368 0003886 267.7882  92.2832 14.98343588 37095
STARLINK-34633          
1 64804U 25150Q   26072.53845063  .00004013  00000+0  34389-3 0  9993
2 64804  70.0027 124.7366 0002775 266.3620  93.7222 14.98336542 37094
STARLINK-34624          
1 64805U 25150R   26072.29211316  .00004751  00000+0  40555-3 0  9996
2 64805  70.0018 125.4870 0003789 266.6978  93.3748 14.98339060 37051
STARLINK-34664          
1 64806U 25150S   26072.57583577  .00007299  00000+0  61897-3 0  9991
2 64806  70.0019 124.4684 0002961 273.8071  86.2749 14.98324100 37107
STARLINK-34663          
1 64807U 25150T   26072.54663298  .00007498  00000+0  63533-3 0  9998
2 64807  70.0025 124.7722 0003732 268.2719  91.8013 14.98339490 37097
STARLINK-34696          
1 64808U 25150U   26072.55081362  .00006076  00000+0  51635-3 0  9997
2 64808  70.0020 124.7824 0003516 270.7908  89.2848 14.98345315 37094
STARLINK-34675          
1 64809U 25150V   26072.53828598  .00004761  00000+0  40647-3 0  9996
2 64809  70.0014 124.7418 0003548 265.7811  94.2943 14.98335813 37093
STARLINK-34608          
1 64810U 25150W   26072.58834559  .00003794  00000+0  32555-3 0  9991
2 64810  70.0021 124.5148 0003453 274.6161  85.4604 14.98337267 37106
STARLINK-34669          
1 64811U 25150X   26072.58416774  .00003530  00000+0  30339-3 0  9993
2 64811  70.0019 124.4965 0004185 268.2854  91.7826 14.98339826 37100
STARLINK-34644          
1 64812U 25150Y   26072.55931680  .00004006  00000+0  34325-3 0  9997
2 64812  70.0022 124.7653 0003523 268.4943  91.5813 14.98336623 37092
STARLINK-34685          
1 64813U 25150Z   26072.57601147  .00004180  00000+0  35777-3 0  9997
2 64813  70.0020 124.8655 0003584 270.9054  89.1695 14.98342143 37097
STARLINK-34668          
1 64814U 25150AA  26072.59267342  .00001094  00000+0  99472-4 0  9999
2 64814  70.0021 124.5200 0003182 267.1508  92.9287 14.98329747 37104
STARLINK-34667          
1 64815U 25150AB  26072.54262496  .00006676  00000+0  56668-3 0  9990
2 64815  70.0019 124.7486 0003480 269.9145  90.1615 14.98336959 37094
KUIPER-00069            
1 64816U 25151A   26072.56330086  .00004581  00000+0  62943-3 0  9991
2 64816  51.9003 263.4950 0000598 101.9196 258.1833 14.79937988 37334
KUIPER-00070            
1 64817U 25151B   26072.63762025  .00001352  00000+0  20637-3 0  9999
2 64817  51.9008 288.1064 0000679  85.9582 274.1458 14.79933188 37003
KUIPER-00071            
1 64818U 25151C   26072.63996221  .00004138  00000+0  57439-3 0  9992
2 64818  51.9005 285.6121 0000938  92.7003 267.4067 14.79711161 35856
KUIPER-00072            
1 64819U 25151D   26072.56054120 -.00005792  00000+0 -73174-3 0  9991
2 64819  51.8958 265.9500 0000427  87.9127 272.1884 14.79916522 36120
KUIPER-00073            
1 64820U 25151E   26072.60656593  .00003827  00000+0  53076-3 0  9994
2 64820  51.8997 285.7557 0000540 105.8432 254.2590 14.79926833 37034
KUIPER-00074            
1 64821U 25151F   26072.58334491  .02494306  00000+0  99061-1 0  9992
2 64821  51.9036 271.0111 0002492 341.1407 316.8105 15.21113014  5038
KUIPER-00075            
1 64822U 25151G   26072.40603016  .00079304  00000+0  18411-2 0  9992
2 64822  51.8702 203.6904 0003468 300.9274  59.1374 15.41665007 36976
KUIPER-00076            
1 64823U 25151H   26072.53761793  .00003926  00000+0  53596-3 0  9995
2 64823  51.8999 275.9475 0000882  36.8673 323.2350 14.80548881 35986
KUIPER-00077            
1 64824U 25151J   26070.85373223  .00003534  00000+0  48917-3 0  9992
2 64824  51.9018 288.5064 0000816 209.9627 150.1289 14.80212799 35662
KUIPER-00078            
1 64825U 25151K   26072.58094709  .00003854  00000+0  53435-3 0  9990
2 64825  51.8999 278.3818 0000965  83.0550 277.0523 14.79924257 35954
KUIPER-00079            
1 64826U 25151L   26072.60910057  .00001984  00000+0  28917-3 0  9996
2 64826  51.8986 283.2289 0000786  80.8422 279.2630 14.79937625 37084
KUIPER-00080            
1 64827U 25151M   26072.57549341  .00004375  00000+0  60246-3 0  9995
2 64827  51.8985 283.3874 0000865 101.7498 258.3561 14.79933605 35880
KUIPER-00082            
1 64828U 25151N   26072.55520915  .00004205  00000+0  58036-3 0  9996
2 64828  51.9008 271.0092 0000655  97.2578 262.8459 14.79922790 36058
KUIPER-00083            
1 64829U 25151P   26072.00688366  .00003859  00000+0  53485-3 0  9999
2 64829  51.9017 280.9249 0000713 102.2244 257.8799 14.79933170 37050
KUIPER-00084            
1 64830U 25151Q   26072.60384964  .00004032  00000+0  55793-3 0  9992
2 64830  51.9003 288.2678 0000457  85.1337 274.9678 14.79902952 35813
KUIPER-00085            
1 64831U 25151R   26072.58904796  .00004188  00000+0  57817-3 0  9992
2 64831  51.9031 270.8892 0000597  91.6915 268.4116 14.79917819 36059
KUIPER-00086            
1 64832U 25151S   26072.57823231  .00004058  00000+0  56113-3 0  9990
2 64832  51.9005 280.9056 0000903  73.5066 286.5995 14.79927400 35919
KUIPER-00087            
1 64833U 25151T   26072.52952553  .00004065  00000+0  56169-3 0  9995
2 64833  51.8985 263.6006 0000551  61.6766 298.4252 14.79944202 36146
KUIPER-00089            
1 64834U 25151U   26072.59113347 -.00012521  00000+0 -16246-2 0  9992
2 64834  51.9001 268.3324 0001011  90.7163 269.3915 14.79722171 36094
KUIPER-00090            
1 64835U 25151V   26072.53222413  .00004084  00000+0  56425-3 0  9999
2 64835  51.8976 261.1300 0000653  98.9626 261.1410 14.79945449 36180
KUIPER-00091            
1 64836U 25151W   26072.52768511  .00059971  00000+0  77927-2 0  9997
2 64836  51.8998 266.1358 0000643  88.3072 271.7964 14.80110149 36117
KUIPER-00092            
1 64837U 25151X   26072.58634698  .00004100  00000+0  56667-3 0  9995
2 64837  51.9000 273.3662 0000878  96.2890 263.8172 14.79921507 37230
KUIPER-00093            
1 64838U 25151Y   26072.58356578  .00003943  00000+0  54647-3 0  9994
2 64838  51.8993 275.8587 0000881  85.7975 274.3088 14.79885929 35985
KUIPER-00094            
1 64839U 25151Z   26072.49879014  .00010521  00000+0  76357-3 0  9992
2 64839  51.8884 244.8639 0005594 303.1178  56.9258 15.04378868 36417
LEMUR-2-HUBBLE-5        
1 64840U 25135BT  26072.31368521  .00002230  00000+0  21559-3 0  9995
2 64840  97.7586 187.9490 0004354 302.9224  57.1576 14.93796353 39599
LEMUR-2-KARENDARRELL    
1 64841U 25135BU  26072.55350430  .00010492  00000+0  87956-3 0  9994
2 64841  97.7603 189.0606 0007793 173.5517 186.5807 14.98554617 39683
STARLINK-34723          
1 64842U 25152A   26072.54717364  .00003829  00000+0  26939-3 0  9996
2 64842  97.6032 289.2442 0001888  91.4038 268.7405 15.05653033 35993
STARLINK-34725          
1 64843U 25152B   26072.59703925  .00006386  00000+0  44639-3 0  9998
2 64843  97.6036 289.3375 0002430  83.7430 276.4073 15.05650598 36001
STARLINK-34709          
1 64844U 25152C   26072.20105169  .00005631  00000+0  39397-3 0  9990
2 64844  97.6038 288.9355 0002146  89.6372 270.5100 15.05668528 35941
STARLINK-34706          
1 64845U 25152D   26072.54440459  .00004452  00000+0  31246-3 0  9997
2 64845  97.6033 289.2480 0001960  74.4565 285.6879 15.05658470 35999
STARLINK-34736          
1 64846U 25152E   26072.57486408  .00001268  00000+0  92107-4 0  9991
2 64846  97.6014 289.3525 0002000  73.2443 286.9003 15.05648597 36003
STARLINK-34746          
1 64847U 25152F   26072.58043833  .00086979  00000+0  59689-2 0  9992
2 64847  97.6017 289.3538 0001246 167.7658 192.3599 15.05587321 36006
STARLINK-34748          
1 64848U 25152G   26072.56656536 -.00004957  00000+0 -33945-3 0  9997
2 64848  97.6019 289.3722 0002111  54.4951 305.6472 15.05664036 36002
STARLINK-34756          
1 64849U 25152H   26072.58334491  .00023844  00000+0  16882-2 0  9997
2 64849  97.6027 289.3769 0000841  97.5311 274.0389 15.04819621  5754
STARLINK-34757          
1 64850U 25152J   26072.19273567  .00003027  00000+0  21388-3 0  9991
2 64850  97.6035 288.9441 0002697  68.4683 291.6831 15.05652495 35943
